NORAD_CAT_ID,OBJECT_NAME,OBJECT_TYPE,EPOCH,MEAN_MOTION,ECCENTRICITY,INCLINATION,RA_OF_ASC_NODE,ARG_OF_PERICENTER,MEAN_ANOMALY,BSTAR,MEAN_MOTION_DOT,MEAN_MOTION_DDOT,TLE_LINE0,TLE_LINE1,TLE_LINE2,SEMIMAJOR_AXIS,PERIOD,APOGEE,PERIGEE,DECAYED
52568.0,STARLINK-3930,PAYLOAD,2024-04-25 21:21:32,15.08838763,0.0001218,53.2182,304.3254,102.5307,257.5822,6.3592e-05,7.24e-06,0.0,0 STARLINK-3930,1 52568U 22051AM  24116.88995799  .00000724  00000-0  63592-4 0  9996,2 52568  53.2182 304.3254 0001218 102.5307 257.5822 15.08838763108504,6917.884,95.438,540.592,538.907,0.0
52568.0,STARLINK-3930,PAYLOAD,2024-04-26 16:26:10,15.08836763,0.0001168,53.2186,300.7567,89.8294,270.2833,9.3564e-05,1.201e-05,0.0,0 STARLINK-3930,1 52568U 22051AM  24117.68483978  .00001201  00000-0  93564-4 0  9999,2 52568  53.2186 300.7567 0001168  89.8294 270.2833 15.08836763108626,6917.89,95.438,540.563,538.947,0.0
52568.0,STARLINK-3930,PAYLOAD,2024-04-27 05:09:14,15.08852157,0.0001262,53.2187,298.3773,91.4797,268.634,0.00020031,2.903e-05,0.0,0 STARLINK-3930,1 52568U 22051AM  24118.21474738  .00002903  00000-0  20031-3 0  9991,2 52568  53.2187 298.3773 0001262  91.4797 268.6340 15.08852157108775,6917.843,95.437,540.581,538.835,0.0
52568.0,STARLINK-3930,PAYLOAD,2024-04-27 21:03:06,15.0884186,0.0001254,53.2185,295.4036,100.9483,259.1651,0.00010933,1.453e-05,0.0,0 STARLINK-3930,1 52568U 22051AM  24118.87715737  .00001453  00000-0  10933-3 0  9999,2 52568  53.2185 295.4036 0001254 100.9483 259.1651 15.08841860108872,6917.875,95.437,540.607,538.872,0.0
52568.0,STARLINK-3930,PAYLOAD,2024-04-28 05:00:01,15.08850956,0.0001365,53.2191,293.9164,88.928,271.1869,0.00016313,2.31e-05,0.0,0 STARLINK-3930,1 52568U 22051AM  24119.20835028  .00002310  00000-0  16313-3 0  9994,2 52568  53.2191 293.9164 0001365  88.9280 271.1869 15.08850956108924,6917.847,95.437,540.656,538.768,0.0
52568.0,STARLINK-3930,PAYLOAD,2024-04-28 11:21:34,15.0885372,0.0001724,53.216,292.7338,87.4363,272.6826,9.964e-05,1.299e-05,0.0,0 STARLINK-3930,1 52568U 22051AM  24119.47331165  .00001299  00000-0  99640-4 0  9996,2 52568  53.2160 292.7338 0001724  87.4363 272.6826 15.08853720108892,6917.838,95.437,540.896,538.511,0.0
52568.0,STARLINK-3930,PAYLOAD,2024-04-28 17:43:07,15.08840931,0.0001095,53.2178,291.5399,92.88,267.2317,-2.4906e-05,-6.84e-06,0.0,0 STARLINK-3930,1 52568U 22051AM  24119.73827930 -.00000684  00000-0 -24906-4 0  9997,2 52568  53.2178 291.5399 0001095  92.8800 267.2317 15.08840931109001,6917.878,95.437,540.5,538.985,0.0
52568.0,STARLINK-3930,PAYLOAD,2024-04-29 04:50:48,15.08852276,0.0001285,53.2166,289.4586,93.3605,266.7534,4.4508e-05,4.21e-06,0.0,0 STARLINK-3930,1 52568U 22051AM  24120.20194804  .00000421  00000-0  44508-4 0  9995,2 52568  53.2166 289.4586 0001285  93.3605 266.7534 15.08852276109079,6917.843,95.437,540.597,538.819,0.0
52568.0,STARLINK-3930,PAYLOAD,2024-04-29 11:12:22,15.08831576,0.0001868,53.2187,288.2708,88.6598,271.4608,0.00012073,1.633e-05,0.0,0 STARLINK-3930,1 52568U 22051AM  24120.46692315  .00001633  00000-0  12073-3 0  9990,2 52568  53.2187 288.2708 0001868  88.6598 271.4608 15.08831576109110,6917.906,95.438,541.063,538.479,0.0
52568.0,STARLINK-3930,PAYLOAD,2024-04-29 14:23:08,15.08833506,0.000162,53.2177,287.6741,100.0652,260.0523,0.00013462,1.855e-05,0.0,0 STARLINK-3930,1 52568U 22051AM  24120.59939962  .00001855  00000-0  13462-3 0  9995,2 52568  53.2177 287.6741 0001620 100.0652 260.0523 15.08833506109064,6917.9,95.438,540.886,538.645,0.0
52568.0,STARLINK-3930,PAYLOAD,2024-04-29 17:33:54,15.088309,0.0001521,53.2183,287.0808,95.8923,264.2243,0.00010197,1.335e-05,0.0,0 STARLINK-3930,1 52568U 22051AM  24120.73188379  .00001335  00000-0  10197-3 0  9994,2 52568  53.2183 287.0808 0001521  95.8923 264.2243 15.08830900109083,6917.908,95.438,540.825,538.721,0.0
52568.0,STARLINK-3930,PAYLOAD,2024-04-30 04:41:36,15.08845786,0.0001436,53.2186,285.0,87.5546,272.561,2.7636e-05,1.52e-06,0.0,0 STARLINK-3930,1 52568U 22051AM  24121.19555562  .00000152  00000-0  27636-4 0  9990,2 52568  53.2186 285.0000 0001436  87.5546 272.5610 15.08845786109226,6917.863,95.437,540.721,538.734,0.0
52568.0,STARLINK-3930,PAYLOAD,2024-04-30 14:13:55,15.08830543,0.0001264,53.2193,283.2154,94.1672,265.9464,0.00014049,1.948e-05,0.0,0 STARLINK-3930,1 52568U 22051AM  24121.59300307  .00001948  00000-0  14049-3 0  9996,2 52568  53.2193 283.2154 0001264  94.1672 265.9464 15.08830543109214,6917.909,95.438,540.649,538.9,0.0
52568.0,STARLINK-3930,PAYLOAD,2024-04-30 17:24:41,15.08836358,0.0001311,53.219,282.6211,89.1362,270.9781,1.4618e-05,-5.5e-07,0.0,0 STARLINK-3930,1 52568U 22051AM  24121.72548304 -.00000055  00000-0  14618-4 0  9994,2 52568  53.2190 282.6211 0001311  89.1362 270.9781 15.08836358109309,6917.892,95.438,540.663,538.85,0.0
52568.0,STARLINK-3930,PAYLOAD,2024-05-01 10:53:55,15.08839326,0.0001475,53.2192,279.3497,97.0501,263.0659,0.00015361,2.158e-05,0.0,0 STARLINK-3930,1 52568U 22051AM  24122.45411802  .00002158  00000-0  15361-3 0  9997,2 52568  53.2192 279.3497 0001475  97.0501 263.0659 15.08839326109343,6917.882,95.438,540.768,538.727,0.0
52568.0,STARLINK-3930,PAYLOAD,2024-05-01 17:15:28,15.08839951,0.000133,53.2182,278.1619,91.3582,268.7562,0.00016381,2.32e-05,0.0,0 STARLINK-3930,1 52568U 22051AM  24122.71907744  .00002320  00000-0  16381-3 0  9995,2 52568  53.2182 278.1619 0001330  91.3582 268.7562 15.08839951109452,6917.881,95.438,540.666,538.825,0.0
52568.0,STARLINK-3930,PAYLOAD,2024-05-02 02:47:46,15.08851447,0.0001324,53.2187,276.3779,89.2709,270.8435,0.00015211,2.134e-05,0.0,0 STARLINK-3930,1 52568U 22051AM  24123.11650939  .00002134  00000-0  15211-3 0  9995,2 52568  53.2187 276.3779 0001324  89.2709 270.8435 15.08851447109518,6917.845,95.437,540.626,538.794,0.0
52568.0,STARLINK-3930,PAYLOAD,2024-05-02 10:44:43,15.08837158,0.0002052,53.2193,274.8906,95.736,264.3866,9.8822e-05,1.285e-05,0.0,0 STARLINK-3930,1 52568U 22051AM  24123.44772131  .00001285  00000-0  98822-4 0  9996,2 52568  53.2193 274.8906 0002052  95.7360 264.3866 15.08837158109568,6917.889,95.438,541.174,538.335,0.0
52568.0,STARLINK-3930,PAYLOAD,2024-05-02 13:55:29,15.08830237,0.0001676,53.2189,274.2965,107.6091,252.5084,3.8498e-05,3.25e-06,0.0,0 STARLINK-3930,1 52568U 22051AM  24123.58020667  .00000325  00000-0  38498-4 0  9998,2 52568  53.2189 274.2965 0001676 107.6091 252.5084 15.08830237109514,6917.91,95.438,540.935,538.616,0.0
52568.0,STARLINK-3930,PAYLOAD,2024-05-02 17:06:16,15.08832021,0.0001471,53.2185,273.7022,100.5144,259.6014,5.8693e-05,6.46e-06,0.0,0 STARLINK-3930,1 52568U 22051AM  24123.71268645  .00000646  00000-0  58693-4 0  9998,2 52568  53.2185 273.7022 0001471 100.5144 259.6014 15.08832021109606,6917.905,95.438,540.787,538.752,0.0
52568.0,STARLINK-3930,PAYLOAD,2024-05-03 02:38:33,15.08845439,0.0001294,53.2186,271.9134,88.4452,271.6688,0.00011331,1.516e-05,0.0,0 STARLINK-3930,1 52568U 22051AM  24124.11011570  .00001516  00000-0  11331-3 0  9990,2 52568  53.2186 271.9134 0001294  88.4452 271.6688 15.08845439109664,6917.864,95.437,540.624,538.834,0.0
52568.0,STARLINK-3930,PAYLOAD,2024-05-03 13:46:17,15.08825203,0.0001812,53.2148,269.8342,88.0765,272.0434,-9.0573e-05,-1.729e-05,0.0,0 STARLINK-3930,1 52568U 22051AM  24124.57381592 -.00001729  00000-0 -90573-4 0  9998,2 52568  53.2148 269.8342 0001812  88.0765 272.0434 15.08825203109737,6917.926,95.438,541.044,538.537,0.0
52568.0,STARLINK-3930,PAYLOAD,2024-05-03 18:32:27,15.08824715,0.0001827,53.2165,268.9407,83.8539,276.2661,-0.00011186,-2.067e-05,0.0,0 STARLINK-3930,1 52568U 22051AM  24124.77253825 -.00002067  00000-0 -11186-3 0  9995,2 52568  53.2165 268.9407 0001827  83.8539 276.2661 15.08824715109696,6917.927,95.439,541.056,538.528,0.0
52568.0,STARLINK-3930,PAYLOAD,2024-05-04 02:29:22,15.08832705,0.0001357,53.2176,267.4539,81.0722,279.0423,-9.3563e-05,-1.776e-05,0.0,0 STARLINK-3930,1 52568U 22051AM  24125.10373393 -.00001776  00000-0 -93563-4 0  9992,2 52568  53.2176 267.4539 0001357  81.0722 279.0423 15.08832705109819,6917.903,95.438,540.706,538.829,0.0
52568.0,STARLINK-3930,PAYLOAD,2024-05-04 18:23:13,15.08841336,0.0001285,53.2169,264.4803,81.191,278.9228,0.00017626,2.518e-05,0.0,0 STARLINK-3930,1 52568U 22051AM  24125.76612708  .00002518  00000-0  17626-3 0  9998,2 52568  53.2169 264.4803 0001285  81.1910 278.9228 15.08841336109914,6917.876,95.437,540.63,538.852,0.0
52568.0,STARLINK-3930,PAYLOAD,2024-05-05 13:27:51,15.08838136,0.0001361,53.2175,260.9121,79.4405,280.674,0.00025017,3.696e-05,0.0,0 STARLINK-3930,1 52568U 22051AM  24126.56101058  .00003696  00000-0  25017-3 0  9999,2 52568  53.2175 260.9121 0001361  79.4405 280.6740 15.08838136109967,6917.886,95.438,540.693,538.81,0.0
52568.0,STARLINK-3930,PAYLOAD,2024-05-05 18:14:00,15.08845329,0.0001513,53.2171,260.0178,79.6569,280.4594,0.00039786,6.051e-05,0.0,0 STARLINK-3930,1 52568U 22051AM  24126.75972903  .00006051  00000-0  39786-3 0  9991,2 52568  53.2171 260.0178 0001513  79.6569 280.4594 15.08845329109998,6917.864,95.437,540.776,538.682,0.0
52568.0,STARLINK-3930,PAYLOAD,2024-05-06 13:18:38,15.08846006,0.0001479,53.2165,256.4518,80.6954,279.4205,0.00010177,1.332e-05,0.0,0 STARLINK-3930,1 52568U 22051AM  24127.55460654  .00001332  00000-0  10177-3 0  9995,2 52568  53.2165 256.4518 0001479  80.6954 279.4205 15.08846006110182,6917.862,95.437,540.75,538.704,0.0
52568.0,STARLINK-3930,PAYLOAD,2024-05-06 14:54:00,15.08850836,0.0001291,53.2173,256.1534,89.4355,270.6785,7.4603e-05,9e-06,0.0,0 STARLINK-3930,1 52568U 22051AM  24127.62084421  .00000900  00000-0  74603-4 0  9992,2 52568  53.2173 256.1534 0001291  89.4355 270.6785 15.08850836110126,6917.847,95.437,540.605,538.819,0.0
52568.0,STARLINK-3930,PAYLOAD,2024-05-07 13:09:25,15.08841351,0.0001232,53.2165,251.9908,88.629,271.4843,2.6925e-05,1.41e-06,0.0,0 STARLINK-3930,1 52568U 22051AM  24128.54820687  .00000141  00000-0  26925-4 0  9997,2 52568  53.2165 251.9908 0001232  88.6290 271.4843 15.08841351110338,6917.876,95.437,540.594,538.889,0.0
